{"type": "FeatureCollection", "features": [ {"type": "Feature", "properties": {"norad_id": 66326, "name": "STARLINK-35479", "group": "last-30-days", "lat": -8.782949412165069, "lon": -140.39114364127101, "alt_km": 415.69126560974473, "timestamp": "2025-12-04T23:34:04.488864+00:00", "meta": {"OBJECT_NAME": "STARLINK-35479", "OBJECT_ID": "2025-253H", "EPOCH": "2025-12-04T15:00:38.013408", "MEAN_MOTION": 15.50615042, "ECCENTRICITY": 0.0001415, "INCLINATION": 43.0005, "RA_OF_ASC_NODE": 32.1514, "ARG_OF_PERICENTER": 287.7439, "MEAN_ANOMALY": 72.3267, "EPHEMERIS_TYPE": 0, "CLASSIFICATION_TYPE": "U", "NORAD_CAT_ID": 66326, "ELEMENT_SET_NO": 999, "REV_AT_EPOCH": 567, "BSTAR": 0.001591, "MEAN_MOTION_DOT": 0.00094247, "MEAN_MOTION_DDOT": 0}, "tle": {"line1": "1 66326U 25253H   25338.62543997  .00094247  00000+0  15910-2 0  9999", "line2": "2 66326  43.0005  32.1514 0001415 287.7439  72.3267 15.50615042  5678"}}, "geometry": {"type": "Point", "coordinates": [-140.39114364127101, -8.782949412165069]}}, {"type": "Feature", "properties": {"norad_id": 66327, "name": "STARLINK-35507", "group": "last-30-days", "lat": -0.9714754087317797, "lon": -148.8600683393882, "alt_km": 415.25086310998995, "timestamp": "2025-12-04T23:34:04.488878+00:00", "meta": {"OBJECT_NAME": "STARLINK-35507", "OBJECT_ID": "2025-253J", "EPOCH": "2025-12-04T16:00:01.998720", "MEAN_MOTION": 15.50531081, "ECCENTRICITY": 0.0001637, "INCLINATION": 43.0007, "RA_OF_ASC_NODE": 31.9419, "ARG_OF_PERICENTER": 282.8728, "MEAN_ANOMALY": 296.3455, "EPHEMERIS_TYPE": 0, "CLASSIFICATION_TYPE": "U", "NORAD_CAT_ID": 66327, "ELEMENT_SET_NO": 999, "REV_AT_EPOCH": 572, "BSTAR": 0.00075641, "MEAN_MOTION_DOT": 0.00044208, "MEAN_MOTION_DDOT": 0}, "tle": {"line1": "1 66327U 25253J   25338.66668980  .00044208  00000+0  75641-3 0  9994", "line2": "2 66327  43.0007  31.9419 0001637 282.8728 296.3455 15.50531081  5728"}}, "geometry": {"type": "Point", "coordinates": [-148.8600683393882, -0.9714754087317797]}}, {"type": "Feature", "properties": {"norad_id": 66328, "name": "STARLINK-35460", "group": "last-30-days", "lat": 36.987513624518655, "lon": 156.3185452245734, "alt_km": 438.6011897904773, "timestamp": "2025-12-04T23:34:04.488889+00:00", "meta": {"OBJECT_NAME": "STARLINK-35460", "OBJECT_ID": "2025-253K", "EPOCH": "2025-12-04T18:00:02.000160", "MEAN_MOTION": 15.40837236, "ECCENTRICITY": 0.0001619, "INCLINATION": 43.0004, "RA_OF_ASC_NODE": 31.5845, "ARG_OF_PERICENTER": 273.2457, "MEAN_ANOMALY": 356.4689, "EPHEMERIS_TYPE": 0, "CLASSIFICATION_TYPE": "U", "NORAD_CAT_ID": 66328, "ELEMENT_SET_NO": 999, "REV_AT_EPOCH": 574, "BSTAR": 0.0026293, "MEAN_MOTION_DOT": 0.00111659, "MEAN_MOTION_DDOT": 0}, "tle": {"line1": "1 66328U 25253K   25338.75002315  .00111659  00000+0  26293-2 0  9992", "line2": "2 66328  43.0004  31.5845 0001619 273.2457 356.4689 15.40837236  5747"}}, "geometry": {"type": "Point", "coordinates": [156.3185452245734, 36.987513624518655]}}, {"type": "Feature", "properties": {"norad_id": 66329, "name": "STARLINK-35505", "group": "last-30-days", "lat": -1.1469258678175756, "lon": -148.67241774340357, "alt_km": 414.4259517388964, "timestamp": "2025-12-04T23:34:04.488902+00:00", "meta": {"OBJECT_NAME": "STARLINK-35505", "OBJECT_ID": "2025-253L", "EPOCH": "2025-12-04T10:25:17.612832", "MEAN_MOTION": 15.50609866, "ECCENTRICITY": 0.0002419, "INCLINATION": 43.0053, "RA_OF_ASC_NODE": 33.3018, "ARG_OF_PERICENTER": 270.3713, "MEAN_ANOMALY": 89.687, "EPHEMERIS_TYPE": 0, "CLASSIFICATION_TYPE": "U", "NORAD_CAT_ID": 66329, "ELEMENT_SET_NO": 999, "REV_AT_EPOCH": 564, "BSTAR": 0.0026928, "MEAN_MOTION_DOT": 0.00161104, "MEAN_MOTION_DDOT": 0}, "tle": {"line1": "1 66329U 25253L   25338.43423163  .00161104  00000+0  26928-2 0  9991", "line2": "2 66329  43.0053  33.3018 0002419 270.3713  89.6870 15.50609866  5649"}}, "geometry": {"type": "Point", "coordinates": [-148.67241774340357, -1.1469258678175756]}}, {"type": "Feature", "properties": {"norad_id": 66330, "name": "STARLINK-35512", "group": "last-30-days", "lat": 27.77004276647846, "lon": 64.83745862024561, "alt_km": 440.14800112435023, "timestamp": "2025-12-04T23:34:04.488913+00:00", "meta": {"OBJECT_NAME": "STARLINK-35512", "OBJECT_ID": "2025-253M", "EPOCH": "2025-12-04T18:00:02.000160", "MEAN_MOTION": 15.40604878, "ECCENTRICITY": 9.33e-05, "INCLINATION": 43.0005, "RA_OF_ASC_NODE": 31.7672, "ARG_OF_PERICENTER": 279.2609, "MEAN_ANOMALY": 275.7939, "EPHEMERIS_TYPE": 0, "CLASSIFICATION_TYPE": "U", "NORAD_CAT_ID": 66330, "ELEMENT_SET_NO": 999, "REV_AT_EPOCH": 564, "BSTAR": 0.0017568, "MEAN_MOTION_DOT": 0.00073561, "MEAN_MOTION_DDOT": 0}, "tle": {"line1": "1 66330U 25253M   25338.75002315  .00073561  00000+0  17568-2 0  9999", "line2": "2 66330  43.0005  31.7672 0000933 279.2609 275.7939 15.40604878  5648"}}, "geometry": {"type": "Point", "coordinates": [64.83745862024561, 27.77004276647846]}}, {"type": "Feature", "properties": {"norad_id": 66331, "name": "STARLINK-35257", "group": "last-30-days", "lat": -16.665561881096252, "lon": -131.2269283578933, "alt_km": 414.1312622547048, "timestamp": "2025-12-04T23:34:04.488924+00:00", "meta": {"OBJECT_NAME": "STARLINK-35257", "OBJECT_ID": "2025-253N", "EPOCH": "2025-12-04T11:52:06.845952", "MEAN_MOTION": 15.50730679, "ECCENTRICITY": 0.0003789, "INCLINATION": 43.0004, "RA_OF_ASC_NODE": 32.8876, "ARG_OF_PERICENTER": 251.6624, "MEAN_ANOMALY": 108.3824, "EPHEMERIS_TYPE": 0, "CLASSIFICATION_TYPE": "U", "NORAD_CAT_ID": 66331, "ELEMENT_SET_NO": 999, "REV_AT_EPOCH": 565, "BSTAR": 0.0028129, "MEAN_MOTION_DOT": 0.00169226, "MEAN_MOTION_DDOT": 0}, "tle": {"line1": "1 66331U 25253N   25338.49452368  .00169226  00000+0  28129-2 0  9997", "line2": "2 66331  43.0004  32.8876 0003789 251.6624 108.3824 15.50730679  5654"}}, "geometry": {"type": "Point", "coordinates": [-131.2269283578933, -16.665561881096252]}}, {"type": "Feature", "properties": {"norad_id": 66332, "name": "STARLINK-35322", "group": "last-30-days", "lat": 31.354562039850258, "lon": 169.38502963745293, "alt_km": 439.3972522259046, "timestamp": "2025-12-04T23:34:04.488937+00:00", "meta": {"OBJECT_NAME": "STARLINK-35322", "OBJECT_ID": "2025-253P", "EPOCH": "2025-12-04T18:00:02.000160", "MEAN_MOTION": 15.40741246, "ECCENTRICITY": 6.08e-05, "INCLINATION": 43.0006, "RA_OF_ASC_NODE": 31.5554, "ARG_OF_PERICENTER": 275.2547, "MEAN_ANOMALY": 6.7559, "EPHEMERIS_TYPE": 0, "CLASSIFICATION_TYPE": "U", "NORAD_CAT_ID": 66332, "ELEMENT_SET_NO": 999, "REV_AT_EPOCH": 564, "BSTAR": -0.0020735, "MEAN_MOTION_DOT": -0.0008606, "MEAN_MOTION_DDOT": 0}, "tle": {"line1": "1 66332U 25253P   25338.75002315 -.00086060  00000+0 -20735-2 0  9991", "line2": "2 66332  43.0006  31.5554 0000608 275.2547   6.7559 15.40741246  5645"}}, "geometry": {"type": "Point", "coordinates": [169.38502963745293, 31.354562039850258]}}, {"type": "Feature", "properties": {"norad_id": 66333, "name": "STARLINK-35400", "group": "last-30-days", "lat": -9.444711700220282, "lon": -139.6550844171872, "alt_km": 429.28701844070383, "timestamp": "2025-12-04T23:34:04.488949+00:00", "meta": {"OBJECT_NAME": "STARLINK-35400", "OBJECT_ID": "2025-253Q", "EPOCH": "2025-12-04T18:00:02.000160", "MEAN_MOTION": 15.47020537, "ECCENTRICITY": 0.000161, "INCLINATION": 43.0007, "RA_OF_ASC_NODE": 31.4106, "ARG_OF_PERICENTER": 267.7675, "MEAN_ANOMALY": 73.0776, "EPHEMERIS_TYPE": 0, "CLASSIFICATION_TYPE": "U", "NORAD_CAT_ID": 66333, "ELEMENT_SET_NO": 999, "REV_AT_EPOCH": 564, "BSTAR": -0.045601, "MEAN_MOTION_DOT": -0.02094539, "MEAN_MOTION_DDOT": 0}, "tle": {"line1": "1 66333U 25253Q   25338.75002315 -.02094539  00000+0 -45601-1 0  9992", "line2": "2 66333  43.0007  31.4106 0001610 267.7675  73.0776 15.47020537  5649"}}, "geometry": {"type": "Point", "coordinates": [-139.6550844171872, -9.444711700220282]}}, {"type": "Feature", "properties": {"norad_id": 66334, "name": "STARLINK-35407", "group": "last-30-days", "lat": 42.24550728018736, "lon": 107.39552487613362, "alt_km": 438.865850105336, "timestamp": "2025-12-04T23:34:04.488960+00:00", "meta": {"OBJECT_NAME": "STARLINK-35407", "OBJECT_ID": "2025-253R", "EPOCH": "2025-12-04T18:00:02.000160", "MEAN_MOTION": 15.40618025, "ECCENTRICITY": 0.0002047, "INCLINATION": 43.0005, "RA_OF_ASC_NODE": 31.6759, "ARG_OF_PERICENTER": 252.3467, "MEAN_ANOMALY": 340.0074, "EPHEMERIS_TYPE": 0, "CLASSIFICATION_TYPE": "U", "NORAD_CAT_ID": 66334, "ELEMENT_SET_NO": 999, "REV_AT_EPOCH": 564, "BSTAR": 0.0015874, "MEAN_MOTION_DOT": 0.00066405, "MEAN_MOTION_DDOT": 0}, "tle": {"line1": "1 66334U 25253R   25338.75002315  .00066405  00000+0  15874-2 0  9990", "line2": "2 66334  43.0005  31.6759 0002047 252.3467 340.0074 15.40618025  5644"}}, "geometry": {"type": "Point", "coordinates": [107.39552487613362, 42.24550728018736]}}, {"type": "Feature", "properties": {"norad_id": 66335, "name": "STARLINK-35417", "group": "last-30-days", "lat": 4.091008292047959, "lon": 34.918644561917326, "alt_km": 443.027598291148, "timestamp": "2025-12-04T23:34:04.488970+00:00", "meta": {"OBJECT_NAME": "STARLINK-35417", "OBJECT_ID": "2025-253S", "EPOCH": "2025-12-04T12:39:05.398848", "MEAN_MOTION": 15.40748615, "ECCENTRICITY": 0.0001535, "INCLINATION": 43.0008, "RA_OF_ASC_NODE": 33.1389, "ARG_OF_PERICENTER": 260.139, "MEAN_ANOMALY": 99.9293, "EPHEMERIS_TYPE": 0, "CLASSIFICATION_TYPE": "U", "NORAD_CAT_ID": 66335, "ELEMENT_SET_NO": 999, "REV_AT_EPOCH": 565, "BSTAR": 0.0028892, "MEAN_MOTION_DOT": 0.00122539, "MEAN_MOTION_DDOT": 0}, "tle": {"line1": "1 66335U 25253S   25338.52714582  .00122539  00000+0  28892-2 0  9997", "line2": "2 66335  43.0008  33.1389 0001535 260.1390  99.9293 15.40748615  5650"}}, "geometry": {"type": "Point", "coordinates": [34.918644561917326, 4.091008292047959]}}]}